TDRS 13                 
1 42915U 17047A   23327.79997997 -.00000100  00000+0  00000+0 0  9993
2 42915   3.8282 340.5606 0012700 126.5243 231.9067  1.00271193 22953
QZS-3 (MICHIBIKI-3)     
1 42917U 17048A   23328.04239149 -.00000341  00000+0  00000+0 0  9990
2 42917   0.0652 219.9777 0002138  30.1393 314.8602  1.00276085 22987
FORMOSAT-5              
1 42920U 17049A   23328.19488394  .00000422  00000+0  11844-3 0  9990
2 42920  98.3112  43.7284 0011868  82.2256 278.0285 14.50754220330952
ORS-5 SENSORSAT         
1 42921U 17050A   23327.34709848  .00003989  00000+0  29053-3 0  9991
2 42921   0.0484 256.6333 0011868 194.0457 269.4569 14.94200461340513
AMAZONAS 5              
1 42934U 17053A   23327.28870150 -.00000276  00000+0  00000+0 0  9990
2 42934   0.0299 324.2629 0004364 309.5611 191.1129  1.00265704 22658
COSMOS 2522 [GLONASS-M] 
1 42939U 17055A   23327.48215406  .00000011  00000+0  00000+0 0  9992
2 42939  64.0917 223.8414 0006666 238.9940 120.9986  2.13101890 48012
ASIASAT 9               
1 42942U 17057A   23327.84007708 -.00000353  00000+0  00000+0 0  9992
2 42942   0.0098 332.2253 0002650 264.8331 250.0413  1.00268969 22550
YAOGAN-30 A             
1 42945U 17058A   23328.13870845  .00004597  00000+0  43070-3 0  9990
2 42945  34.9987 297.6358 0004780 268.1887  91.8271 14.93499760335398
YAOGAN-30 B             
1 42946U 17058B   23328.09481164  .00004526  00000+0  42453-3 0  9994
2 42946  34.9986 298.2050 0001148 150.9002 209.1767 14.93473403335374
YAOGAN-30 C             
1 42947U 17058C   23328.14161991  .00005103  00000+0  47438-3 0  9994
2 42947  34.9984 297.6140 0006566 314.0752  45.9413 14.93782356335374
INTELSAT 37E (IS-37E)   
1 42950U 17059A   23328.04424569 -.00000134  00000+0  00000+0 0  9991
2 42950   0.0186 317.0098 0003499 288.7092 174.9559  1.00270030 22654
BSAT-4A                 
1 42951U 17059B   23328.02549639 -.00000343  00000+0  00000+0 0  9998
2 42951   0.0654  69.8645 0000938 263.1722 208.7356  1.00271078 22561
VRSS-2                  
1 42954U 17060A   23328.14303578  .00001524  00000+0  21901-3 0  9994
2 42954  97.7857  26.6354 0016917 269.8832  90.0441 14.77746427330033
IRIDIUM 133             
1 42955U 17061A   23327.80781835  .00000058  00000+0  13712-4 0  9997
2 42955  86.3989  56.5756 0001894 102.3056 257.8352 14.34220890320564
IRIDIUM 100             
1 42956U 17061B   23327.80146714  .00000522  00000+0  17947-3 0  9998
2 42956  86.3989  56.5188 0002118  97.9139 262.2297 14.34220768320567
IRIDIUM 122             
1 42957U 17061C   23327.76975230  .00000542  00000+0  18656-3 0  9997
2 42957  86.3988  56.5296 0002254 101.4650 258.6799 14.34220361320562
IRIDIUM 129             
1 42958U 17061D   23327.79512990  .00000319  00000+0  10668-3 0  9998
2 42958  86.3992  56.5764 0002171 103.0711 257.0727 14.34218682320581
