[{"OBJECT_NAME":"TDRS 13","OBJECT_ID":"2017-047A","EPOCH":"2023-11-23T19:11:58.269408","MEAN_MOTION":1.00271193,"ECCENTRICITY":0.00127,"INCLINATION":3.8282,"RA_OF_ASC_NODE":340.5606,"ARG_OF_PERICENTER":126.5243,"MEAN_ANOMALY":231.9067,"EPHEMERIS_TYPE":0,"CLASSIFICATION_TYPE":"U","NORAD_CAT_ID":42915,"ELEMENT_SET_NO":999,"REV_AT_EPOCH":2295,"BSTAR":0,"MEAN_MOTION_DOT":-1.0e-6,"MEAN_MOTION_DDOT":0},{"OBJECT_NAME":"QZS-3 (MICHIBIKI-3)","OBJECT_ID":"2017-048A","EPOCH":"2023-11-24T01:01:02.624736","MEAN_MOTION":1.00276085,"ECCENTRICITY":0.0002138,"INCLINATION":0.0652,"RA_OF_ASC_NODE":219.9777,"ARG_OF_PERICENTER":30.1393,"MEAN_ANOMALY":314.8602,"EPHEMERIS_TYPE":0,"CLASSIFICATION_TYPE":"U","NORAD_CAT_ID":42917,"ELEMENT_SET_NO":999,"REV_AT_EPOCH":2298,"BSTAR":0,"MEAN_MOTION_DOT":-3.41e-6,"MEAN_MOTION_DDOT":0},{"OBJECT_NAME":"FORMOSAT-5","OBJECT_ID":"2017-049A","EPOCH":"2023-11-24T04:40:37.972416","MEAN_MOTION":14.5075422,"ECCENTRICITY":0.0011868,"INCLINATION":98.3112,"RA_OF_ASC_NODE":43.7284,"ARG_OF_PERICENTER":82.2256,"MEAN_ANOMALY":278.0285,"EPHEMERIS_TYPE":0,"CLASSIFICATION_TYPE":"U","NORAD_CAT_ID":42920,"ELEMENT_SET_NO":999,"REV_AT_EPOCH":33095,"BSTAR":0.00011844,"MEAN_MOTION_DOT":4.22e-6,"MEAN_MOTION_DDOT":0},{"OBJECT_NAME":"ORS-5 SENSORSAT","OBJECT_ID":"2017-050A","EPOCH":"2023-11-23T08:19:49.308672","MEAN_MOTION":14.94200461,"ECCENTRICITY":0.0011868,"INCLINATION":0.0484,"RA_OF_ASC_NODE":256.6333,"ARG_OF_PERICENTER":194.0457,"MEAN_ANOMALY":269.4569,"EPHEMERIS_TYPE":0,"CLASSIFICATION_TYPE":"U","NORAD_CAT_ID":42921,"ELEMENT_SET_NO":999,"REV_AT_EPOCH":34051,"BSTAR":0.00029053,"MEAN_MOTION_DOT":3.989e-5,"MEAN_MOTION_DDOT":0},{"OBJECT_NAME":"AMAZONAS 5","OBJECT_ID":"2017-053A","EPOCH":"2023-11-23T06:55:43.809600","MEAN_MOTION":1.00265704,"ECCENTRICITY":0.0004364,"INCLINATION":0.0299,"RA_OF_ASC_NODE":324.2629,"ARG_OF_PERICENTER":309.5611,"MEAN_ANOMALY":191.1129,"EPHEMERIS_TYPE":0,"CLASSIFICATION_TYPE":"U","NORAD_CAT_ID":42934,"ELEMENT_SET_NO":999,"REV_AT_EPOCH":2265,"BSTAR":0,"MEAN_MOTION_DOT":-2.76e-6,"MEAN_MOTION_DDOT":0},{"OBJECT_NAME":"COSMOS 2522 [GLONASS-M]","OBJECT_ID":"2017-055A","EPOCH":"2023-11-23T11:34:18.110784","MEAN_MOTION":2.1310189,"ECCENTRICITY":0.0006666,"INCLINATION":64.0917,"RA_OF_ASC_NODE":223.8414,"ARG_OF_PERICENTER":238.994,"MEAN_ANOMALY":120.9986,"EPHEMERIS_TYPE":0,"CLASSIFICATION_TYPE":"U","NORAD_CAT_ID":42939,"ELEMENT_SET_NO":999,"REV_AT_EPOCH":4801,"BSTAR":0,"MEAN_MOTION_DOT":1.1e-7,"MEAN_MOTION_DDOT":0},{"OBJECT_NAME":"ASIASAT 9","OBJECT_ID":"2017-057A","EPOCH":"2023-11-23T20:09:42.659712","MEAN_MOTION":1.00268969,"ECCENTRICITY":0.000265,"INCLINATION":0.0098,"RA_OF_ASC_NODE":332.2253,"ARG_OF_PERICENTER":264.8331,"MEAN_ANOMALY":250.0413,"EPHEMERIS_TYPE":0,"CLASSIFICATION_TYPE":"U","NORAD_CAT_ID":42942,"ELEMENT_SET_NO":999,"REV_AT_EPOCH":2255,"BSTAR":0,"MEAN_MOTION_DOT":-3.53e-6,"MEAN_MOTION_DDOT":0},{"OBJECT_NAME":"YAOGAN-30 A","OBJECT_ID":"2017-058A","EPOCH":"2023-11-24T03:19:44.410080","MEAN_MOTION":14.9349976,"ECCENTRICITY":0.000478,"INCLINATION":34.9987,"RA_OF_ASC_NODE":297.6358,"ARG_OF_PERICENTER":268.1887,"MEAN_ANOMALY":91.8271,"EPHEMERIS_TYPE":0,"CLASSIFICATION_TYPE":"U","NORAD_CAT_ID":42945,"ELEMENT_SET_NO":999,"REV_AT_EPOCH":33539,"BSTAR":0.0004307,"MEAN_MOTION_DOT":4.597e-5,"MEAN_MOTION_DDOT":0},{"OBJECT_NAME":"YAOGAN-30 B","OBJECT_ID":"2017-058B","EPOCH":"2023-11-24T02:16:31.725696","MEAN_MOTION":14.93473403,"ECCENTRICITY":0.0001148,"INCLINATION":34.9986,"RA_OF_ASC_NODE":298.205,"ARG_OF_PERICENTER":150.9002,"MEAN_ANOMALY":209.1767,"EPHEMERIS_TYPE":0,"CLASSIFICATION_TYPE":"U","NORAD_CAT_ID":42946,"ELEMENT_SET_NO":999,"REV_AT_EPOCH":33537,"BSTAR":0.00042453,"MEAN_MOTION_DOT":4.526e-5,"MEAN_MOTION_DDOT":0},{"OBJECT_NAME":"YAOGAN-30 C","OBJECT_ID":"2017-058C","EPOCH":"2023-11-24T03:23:55.960224","MEAN_MOTION":14.93782356,"ECCENTRICITY":0.0006566,"INCLINATION":34.9984,"RA_OF_ASC_NODE":297.614,"ARG_OF_PERICENTER":314.0752,"MEAN_ANOMALY":45.9413,"EPHEMERIS_TYPE":0,"CLASSIFICATION_TYPE":"U","NORAD_CAT_ID":42947,"ELEMENT_SET_NO":999,"REV_AT_EPOCH":33537,"BSTAR":0.00047438,"MEAN_MOTION_DOT":5.103e-5,"MEAN_MOTION_DDOT":0},{"OBJECT_NAME":"INTELSAT 37E (IS-37E)","OBJECT_ID":"2017-059A","EPOCH":"2023-11-24T01:03:42.827616","MEAN_MOTION":1.0027003,"ECCENTRICITY":0.0003499,"INCLINATION":0.0186,"RA_OF_ASC_NODE":317.0098,"ARG_OF_PERICENTER":288.7092,"MEAN_ANOMALY":174.9559,"EPHEMERIS_TYPE":0,"CLASSIFICATION_TYPE":"U","NORAD_CAT_ID":42950,"ELEMENT_SET_NO":999,"REV_AT_EPOCH":2265,"BSTAR":0,"MEAN_MOTION_DOT":-1.34e-6,"MEAN_MOTION_DDOT":0},{"OBJECT_NAME":"BSAT-4A","OBJECT_ID":"2017-059B","EPOCH":"2023-11-24T00:36:42.888096","MEAN_MOTION":1.00271078,"ECCENTRICITY":9.38e-5,"INCLINATION":0.0654,"RA_OF_ASC_NODE":69.8645,"ARG_OF_PERICENTER":263.1722,"MEAN_ANOMALY":208.7356,"EPHEMERIS_TYPE":0,"CLASSIFICATION_TYPE":"U","NORAD_CAT_ID":42951,"ELEMENT_SET_NO":999,"REV_AT_EPOCH":2256,"BSTAR":0,"MEAN_MOTION_DOT":-3.43e-6,"MEAN_MOTION_DDOT":0},{"OBJECT_NAME":"VRSS-2","OBJECT_ID":"2017-060A","EPOCH":"2023-11-24T03:25:58.291392","MEAN_MOTION":14.77746427,"ECCENTRICITY":0.0016917,"INCLINATION":97.7857,"RA_OF_ASC_NODE":26.6354,"ARG_OF_PERICENTER":269.8832,"MEAN_ANOMALY":90.0441,"EPHEMERIS_TYPE":0,"CLASSIFICATION_TYPE":"U","NORAD_CAT_ID":42954,"ELEMENT_SET_NO":999,"REV_AT_EPOCH":33003,"BSTAR":0.00021901,"MEAN_MOTION_DOT":1.524e-5,"MEAN_MOTION_DDOT":0},{"OBJECT_NAME":"IRIDIUM 133","OBJECT_ID":"2017-061A","EPOCH":"2023-11-23T19:23:15.505440","MEAN_MOTION":14.3422089,"ECCENTRICITY":0.0001894,"INCLINATION":86.3989,"RA_OF_ASC_NODE":56.5756,"ARG_OF_PERICENTER":102.3056,"MEAN_ANOMALY":257.8352,"EPHEMERIS_TYPE":0,"CLASSIFICATION_TYPE":"U","NORAD_CAT_ID":42955,"ELEMENT_SET_NO":999,"REV_AT_EPOCH":32056,"BSTAR":1.3712e-5,"MEAN_MOTION_DOT":5.8e-7,"MEAN_MOTION_DDOT":0},{"OBJECT_NAME":"IRIDIUM 100","OBJECT_ID":"2017-061B","EPOCH":"2023-11-23T19:14:06.760896","MEAN_MOTION":14.34220768,"ECCENTRICITY":0.0002118,"INCLINATION":86.3989,"RA_OF_ASC_NODE":56.5188,"ARG_OF_PERICENTER":97.9139,"MEAN_ANOMALY":262.2297,"EPHEMERIS_TYPE":0,"CLASSIFICATION_TYPE":"U","NORAD_CAT_ID":42956,"ELEMENT_SET_NO":999,"REV_AT_EPOCH":32056,"BSTAR":0.00017947,"MEAN_MOTION_DOT":5.22e-6,"MEAN_MOTION_DDOT":0},{"OBJECT_NAME":"IRIDIUM 122","OBJECT_ID":"2017-061C","EPOCH":"2023-11-23T18:28:26.598720","MEAN_MOTION":14.34220361,"ECCENTRICITY":0.0002254,"INCLINATION":86.3988,"RA_OF_ASC_NODE":56.5296,"ARG_OF_PERICENTER":101.465,"MEAN_ANOMALY":258.6799,"EPHEMERIS_TYPE":0,"CLASSIFICATION_TYPE":"U","NORAD_CAT_ID":42957,"ELEMENT_SET_NO":999,"REV_AT_EPOCH":32056,"BSTAR":0.00018656,"MEAN_MOTION_DOT":5.42e-6,"MEAN_MOTION_DDOT":0},{"OBJECT_NAME":"IRIDIUM 129","OBJECT_ID":"2017-061D","EPOCH":"2023-11-23T19:04:59.223360","MEAN_MOTION":14.34218682,"ECCENTRICITY":0.0002171,"INCLINATION":86.3992,"RA_OF_ASC_NODE":56.5764,"ARG_OF_PERICENTER":103.0711,"MEAN_ANOMALY":257.0727,"EPHEMERIS_TYPE":0,"CLASSIFICATION_TYPE":"U","NORAD_CAT_ID":42958,"ELEMENT_SET_NO":999,"REV_AT_EPOCH":32058,"BSTAR":0.00010668,"MEAN_MOTION_DOT":3.19e-6,"MEAN_MOTION_DDOT":0}]
